OBJECT_NAME,OBJECT_ID,EPOCH,MEAN_MOTION,ECCENTRICITY,INCLINATION,RA_OF_ASC_NODE,ARG_OF_PERICENTER,MEAN_ANOMALY,EPHEMERIS_TYPE,CLASSIFICATION_TYPE,NORAD_CAT_ID,ELEMENT_SET_NO,REV_AT_EPOCH,BSTAR,MEAN_MOTION_DOT,MEAN_MOTION_DDOT
COSMOS 2058,1990-010A,2026-06-19T10:50:28.449024,15.12029271,.00089381,82.4690,307.1215,351.7079,8.4002,0,U,20465,999,95761,.19524335E-3,.3385E-4,0
SL-14 R/B,1990-010B,2026-06-19T11:03:44.066016,14.83647419,.00189024,82.5015,171.8095,328.5074,31.5008,0,U,20466,999,94357,.31194904E-4,.282E-5,0
SL-14 R/B,1990-018B,2026-06-19T13:50:27.597120,14.82217417,.00175553,82.5211,127.8742,114.4546,245.8502,0,U,20511,999,93767,.35373299E-4,.307E-5,0
HST,1990-037B,2026-06-19T02:22:40.723680,15.30765373,.00017236,28.4721,67.5085,162.4358,197.6298,0,U,20580,999,78886,.1675625E-3,.5359E-4,0
SL-16 R/B,1990-046B,2026-06-19T11:49:59.621088,14.15027214,.00131565,71.0001,84.1054,158.2930,201.8753,0,U,20625,999,86279,.37859216E-4,.26E-6,0
COSMOS 2084,1990-055A,2026-06-19T14:01:36.194880,15.06124063,.00056691,62.7899,347.9084,283.0155,77.0313,0,U,20663,999,95166,.11825357E-3,.1536E-4,0
SL-6 R/B(2),1990-055D,2026-06-19T13:49:11.435520,15.04009338,.00410442,62.7822,267.2481,5.4872,354.6669,0,U,20666,999,95351,.91758802E-4,.1088E-4,0
SL-8 R/B,1990-078B,2026-06-19T11:23:30.808896,14.92414285,.03503498,82.9018,159.5784,30.7761,331.3492,0,U,20775,999,82446,.62227166E-3,.22061E-3,0
SL-8 R/B,1991-006B,2026-06-19T13:19:47.577792,13.77506036,.00237638,82.9425,94.2720,108.2849,64.2696,0,U,21088,999,77809,.46403848E-4,.62E-6,0
OKEAN-3,1991-039A,2026-06-19T11:09:49.533696,15.05334597,.00138482,82.5163,238.1727,349.6617,10.4322,0,U,21397,999,88034,.16353902E-3,.2373E-4,0
COSMOS 2151,1991-042A,2026-06-19T12:39:11.076192,15.00443396,.00137742,82.4961,345.4224,77.0140,283.2621,0,U,21422,999,87846,.764341E-4,.99E-5,0
SL-14 R/B,1991-042B,2026-06-19T14:00:34.788672,14.81903690,.00154208,82.4928,124.6481,266.1929,93.7522,0,U,21423,999,86816,.32662914E-4,.282E-5,0
ERS-1,1991-050A,2026-06-19T07:40:08.770080,14.39518150,.00307252,98.7797,191.0697,260.3837,99.3878,0,U,21574,999,83035,.5716254E-4,.132E-5,0
ARIANE 40 R/B,1991-050F,2026-06-19T13:05:19.025376,14.42958188,.00043175,98.1874,218.8705,116.3984,243.7650,0,U,21610,999,83368,.69237815E-4,.19E-5,0
INTERCOSMOS 25,1991-086A,2026-06-19T12:07:42.729024,12.12198919,.14839644,82.6052,248.4070,257.3886,85.7779,0,U,21819,999,50902,.16048497E-3,.805E-5,0
SL-8 R/B,1992-008B,2026-06-19T12:50:50.498880,13.75977557,.00339846,82.9260,192.0417,207.9918,261.7256,0,U,21876,999,72342,.11444237E-3,.127E-5,0
SL-8 R/B,1992-020B,2026-06-19T11:27:13.156704,13.75549106,.00295827,82.9306,78.1566,16.2910,157.5611,0,U,21938,999,71512,.65653757E-4,.79E-6,0
USA 81,1992-023A,2026-06-19T10:34:09.988032,14.32398757,.00027484,85.0074,72.7071,82.6810,277.4695,0,U,21949,999,10935,.44966067E-4,.141E-5,0
COSMOS 2219,1992-076A,2026-06-19T07:30:21.471264,14.14100467,.00167006,71.0581,165.6281,40.7258,319.5110,0,U,22219,999,73274,.19006028E-3,.315E-5,0
SL-16 R/B,1992-076B,2026-06-19T13:43:43.658112,14.16873450,.00147328,71.0007,333.7570,295.4964,128.5212,0,U,22220,999,73626,.14588411E-3,.245E-5,0
COSMOS 2221,1992-080A,2026-06-19T13:06:20.960352,14.96537995,.0013475,82.5028,181.5045,203.9046,156.1553,0,U,22236,999,79602,.88106609E-4,.1029E-4,0
SL-16 R/B,1992-093B,2026-06-19T08:42:02.401920,14.15460289,.00038382,71.0196,150.8244,184.3807,175.7283,0,U,22285,999,72754,-.91609492E-4,-.227E-5,0
COSMOS 2228,1992-094A,2026-06-19T13:26:12.080256,14.97593617,.00166893,82.5175,139.7701,323.9017,36.1077,0,U,22286,999,79130,.12483281E-3,.1488E-4,0
SL-16 R/B,1993-016B,2026-06-19T06:31:54.484032,14.15315197,.00100916,71.0085,1.8275,180.5605,179.5508,0,U,22566,999,71654,.10635135E-3,.16E-5,0
COSMOS 2242,1993-024A,2026-06-19T09:16:50.639808,14.96909187,.00151618,82.5179,169.4385,328.4519,31.5792,0,U,22626,999,79560,.10993261E-3,.129E-4,0
SL-16 R/B,1993-059B,2026-06-19T07:47:59.989632,14.17248060,.00152868,70.9886,156.7954,50.3136,309.9333,0,U,22803,999,69393,-.60637722E-4,-.171E-5,0
ARIANE 40 R/B,1993-061H,2026-06-19T03:51:14.517216,14.32908649,.00103328,98.4819,236.9767,350.4120,9.6865,0,U,22830,999,70863,.64512006E-4,.133E-5,0
COSMOS 2278,1994-023A,2026-06-19T13:56:17.839392,14.14398664,.0010598,71.0550,321.9164,240.5958,119.4107,0,U,23087,999,65921,.30861428E-4,.12E-6,0
SL-16 R/B,1994-023B,2026-06-19T12:15:30.846816,14.15026523,.00026011,70.9992,217.0517,185.1508,174.9588,0,U,23088,999,66049,.10025838E-3,.147E-5,0
SL-16 R/B,1994-074B,2026-06-19T14:12:41.431680,14.79504029,.0005217,97.6989,197.2130,243.4082,231.4393,0,U,23343,999,70231,.44603888E-4,.284E-5,0
